LEMUR-2-CHANUSIAK       
1 43697U 18088H   19063.90830747  .00001637  00000-0  72508-4 0  9994
2 43697  85.0398  27.9948 0014822 209.1182 150.9234 15.20702970 17299
LEMUR-2-ORZULAK         
1 43731U 18096N   19064.72578067  .00002277  00000-0  88545-4 0  9996
2 43731  97.4733 134.8688 0020600 351.1759 124.6571 15.26906217 14729
LEMUR-2-KOBYSZCZE       
1 43732U 18096P   19064.84791866  .00002763  00000-0  10654-3 0  9999
2 43732  97.4723 135.0025 0020635 351.6015  99.7801 15.27000759 14742
LEMUR-2-DULY            
1 43745U 18096AC  19064.79143317  .00002826  00000-0  10910-3 0  9994
2 43745  97.4722 134.9346 0020702 351.1084 128.5146 15.26940043 14746
LEMUR-2-VLADIMIR        
1 43746U 18096AD  19064.78642103  .00003136  00000-0  12042-3 0  9994
2 43746  97.4718 134.9382 0020529 351.9362 127.2766 15.27037440 14761
LEMUR-2-CHRISTINAHOLT   
1 43882U 18111G   19064.55549712  .00001070  00000-0  99465-4 0  9990
2 43882  97.7263 334.1135 0012506  23.0701 337.1080 14.96386323  8238
LEMUR-2-TINYKEV         
1 43883U 18111H   19064.55350143  .00001070  00000-0  99337-4 0  9997
2 43883  97.7265 334.1189 0012402  23.0401 337.1374 14.96429594  8236
LEMUR-2-REMY-COLTON     
1 43884U 18111J   19064.55229035  .00000827  00000-0  77935-4 0  9992
2 43884  97.7268 334.1232 0012255  23.0912 337.0858 14.96441358  8230
LEMUR-2-GUSTAVO         
1 43885U 18111K   19064.21496277  .00000692  00000-0  65996-4 0  9994
2 43885  97.7269 333.7996 0012129  23.2154 336.9613 14.96508807  8188
LEMUR-2-ZO              
1 43886U 18111L   19064.54556194  .00000554  00000-0  53724-4 0  9999
2 43886  97.7273 334.1386 0011973  21.2473 338.9244 14.96588952  8237
LEMUR-2-NATALIEMURRAY   
1 43887U 18111M   19063.93958776  .00000726  00000-0  68599-4 0  9991
2 43887  97.7272 333.5498 0012132  21.2857 338.8866 14.96696951 10138
LEMUR-2-SARAHBETTYBOO   
1 43888U 18111N   19064.87271257  .00000699  00000-0  66153-4 0  9991
2 43888  97.7279 334.4843 0012022  17.4803 342.6830 14.96764156 10278
LEMUR-2-DAISY-HARPER    
1 43889U 18111P   19064.53618463  .00000567  00000-0  54566-4 0  9998
2 43889  97.7278 334.1562 0012145  17.7729 342.3915 14.96813545 10211
